[{"OBJECT_NAME":"UHETSAT","OBJECT_ID":"2023-185E","EPOCH":"2026-03-09T22:39:26.455680","MEAN_MOTION":15.29797662,"ECCENTRICITY":0.00118435,"INCLINATION":97.3584,"RA_OF_ASC_NODE":137.3576,"ARG_OF_PERICENTER":307.7346,"MEAN_ANOMALY":52.2821,"EPHEMERIS_TYPE":0,"CLASSIFICATION_TYPE":"U","NORAD_CAT_ID":58466,"ELEMENT_SET_NO":999,"REV_AT_EPOCH":12611,"BSTAR":0.00030513019,"MEAN_MOTION_DOT":8.749e-5,"MEAN_MOTION_DDOT":0},{"OBJECT_NAME":"STARLINK-34381","OBJECT_ID":"2025-120AC","EPOCH":"2026-03-09T10:06:33.341472","MEAN_MOTION":15.30186168,"ECCENTRICITY":0.00012437,"INCLINATION":53.158,"RA_OF_ASC_NODE":118.0377,"ARG_OF_PERICENTER":78.1724,"MEAN_ANOMALY":281.9417,"EPHEMERIS_TYPE":0,"CLASSIFICATION_TYPE":"U","NORAD_CAT_ID":64282,"ELEMENT_SET_NO":999,"REV_AT_EPOCH":4385,"BSTAR":0.00059198289,"MEAN_MOTION_DOT":0.00017207,"MEAN_MOTION_DDOT":0}]
